{
    "links": {
        "self": "http://www.neowsapp.com/rest/v1/neo/3639501?api_key=iIulBulltgU6a56xZRHN4H3l9WmuAYTsLGpBGhQ2"
    },
    "id": "3639501",
    "neo_reference_id": "3639501",
    "name": "(2013 LD2)",
    "designation": "2013 LD2",
    "nasa_jpl_url": "http://ssd.jpl.nasa.gov/sbdb.cgi?sstr=3639501",
    "absolute_magnitude_h": 24.8,
    "estimated_diameter": {
        "kilometers": {
            "estimated_diameter_min": 0.0291443905,
            "estimated_diameter_max": 0.0651688382
        },
        "meters": {
            "estimated_diameter_min": 29.1443904535,
            "estimated_diameter_max": 65.1688382168
        },
        "miles": {
            "estimated_diameter_min": 0.018109479,
            "estimated_diameter_max": 0.0404940262
        },
        "feet": {
            "estimated_diameter_min": 95.6180819754,
            "estimated_diameter_max": 213.8085311752
        }
    },
    "is_potentially_hazardous_asteroid": false,
    "close_approach_data": [
        {
            "close_approach_date": "1953-04-15",
            "close_approach_date_full": "1953-Apr-15 07:19",
            "epoch_date_close_approach": -527445660000,
            "relative_velocity": {
                "kilometers_per_second": "19.7497119076",
                "kilometers_per_hour": "71098.9628672142",
                "miles_per_hour": "44178.1305660198"
            },
            "miss_distance": {
                "astronomical": "0.4409710853",
                "lunar": "171.5377521817",
                "kilometers": "65968335.092468311",
                "miles": "40990822.6567562518"
            },
            "orbiting_body": "Earth"
        },
        {
            "close_approach_date": "2002-08-06",
            "close_approach_date_full": "2002-Aug-06 17:20",
            "epoch_date_close_approach": 1028654400000,
            "relative_velocity": {
                "kilometers_per_second": "17.9547011785",
                "kilometers_per_hour": "64636.9242425838",
                "miles_per_hour": "40162.8710661766"
            },
            "miss_distance": {
                "astronomical": "0.3838862771",
                "lunar": "149.3317617919",
                "kilometers": "57428569.376389777",
                "miles": "35684458.3001698426"
            },
            "orbiting_body": "Earth"
        },
        {
            "close_approach_date": "2013-06-10",
            "close_approach_date_full": "2013-Jun-10 09:36",
            "epoch_date_close_approach": 1370856960000,
            "relative_velocity": {
                "kilometers_per_second": "6.434241281",
                "kilometers_per_hour": "23163.2686115341",
                "miles_per_hour": "14392.7543214279"
            },
            "miss_distance": {
                "astronomical": "0.0154880825",
                "lunar": "6.0248640925",
                "kilometers": "2316984.152384275",
                "miles": "1439707.192181995"
            },
            "orbiting_body": "Earth"
        },
        {
            "close_approach_date": "2024-04-17",
            "close_approach_date_full": "2024-Apr-17 17:40",
            "epoch_date_close_approach": 1713375600000,
            "relative_velocity": {
                "kilometers_per_second": "18.9049110368",
                "kilometers_per_hour": "68057.6797323904",
                "miles_per_hour": "42288.3954981622"
            },
            "miss_distance": {
                "astronomical": "0.4121215301",
                "lunar": "160.3152752089",
                "kilometers": "61652503.084100887",
                "miles": "38309089.0003987606"
            },
            "orbiting_body": "Earth"
        },
        {
            "close_approach_date": "2060-02-11",
            "close_approach_date_full": "2060-Feb-11 10:32",
            "epoch_date_close_approach": 2843721120000,
            "relative_velocity": {
                "kilometers_per_second": "12.2519772696",
                "kilometers_per_hour": "44107.118170677",
                "miles_per_hour": "27406.4479544409"
            },
            "miss_distance": {
                "astronomical": "0.0664587148",
                "lunar": "25.8524400572",
                "kilometers": "9942082.177017476",
                "miles": "6177723.3999581288"
            },
            "orbiting_body": "Mars"
        }
    ],
    "orbital_data": {
        "orbit_id": "13",
        "orbit_determination_date": "2017-04-06 08:45:40",
        "first_observation_date": "2013-06-04",
        "last_observation_date": "2013-06-17",
        "data_arc_in_days": 13,
        "observations_used": 97,
        "orbit_uncertainty": "7",
        "minimum_orbit_intersection": ".016782",
        "jupiter_tisserand_invariant": "3.742",
        "epoch_osculation": "2459000.5",
        "eccentricity": ".4735173931456285",
        "semi_major_axis": "1.954329190856368",
        "inclination": "1.678062828254888",
        "ascending_node_longitude": "60.8988954051198",
        "orbital_period": "997.9183422318358",
        "perihelion_distance": "1.028920327053655",
        "perihelion_argument": "200.0353148800253",
        "aphelion_distance": "2.879738054659081",
        "perihelion_time": "2459448.376582218731",
        "mean_anomaly": "198.4280929859037",
        "mean_motion": ".3607509600383365",
        "equinox": "J2000",
        "orbit_class": {
            "orbit_class_type": "AMO",
            "orbit_class_description": "Near-Earth asteroid orbits similar to that of 1221 Amor",
            "orbit_class_range": "1.017 AU < q (perihelion) < 1.3 AU"
        }
    },
    "is_sentry_object": false
}